[{"OBJECT_NAME":"XINGYUN-2 01","OBJECT_ID":"2020-028A","EPOCH":"2026-03-09T23:27:57.512736","MEAN_MOTION":15.11323975,"ECCENTRICITY":0.00090563,"INCLINATION":97.4853,"RA_OF_ASC_NODE":63.3977,"ARG_OF_PERICENTER":174.572,"MEAN_ANOMALY":185.561,"EPHEMERIS_TYPE":0,"CLASSIFICATION_TYPE":"U","NORAD_CAT_ID":45602,"ELEMENT_SET_NO":999,"REV_AT_EPOCH":31985,"BSTAR":0.000253969,"MEAN_MOTION_DOT":4.22e-5,"MEAN_MOTION_DDOT":0},{"OBJECT_NAME":"STARLINK-3817","OBJECT_ID":"2022-045AN","EPOCH":"2026-03-09T15:35:05.390880","MEAN_MOTION":15.08831384,"ECCENTRICITY":9.695e-5,"INCLINATION":53.2189,"RA_OF_ASC_NODE":189.3052,"ARG_OF_PERICENTER":76.7638,"MEAN_ANOMALY":283.3462,"EPHEMERIS_TYPE":0,"CLASSIFICATION_TYPE":"U","NORAD_CAT_ID":52367,"ELEMENT_SET_NO":999,"REV_AT_EPOCH":21591,"BSTAR":1.6355217e-5,"MEAN_MOTION_DOT":-2.7e-7,"MEAN_MOTION_DDOT":0}]
